[{"OBJECT_NAME":"STARLINK-36189","OBJECT_ID":"2025-293H","EPOCH":"2026-03-09T11:58:18.945696","MEAN_MOTION":14.98332853,"ECCENTRICITY":0.00031517,"INCLINATION":70.0008,"RA_OF_ASC_NODE":94.761,"ARG_OF_PERICENTER":268.6465,"MEAN_ANOMALY":91.4333,"EPHEMERIS_TYPE":0,"CLASSIFICATION_TYPE":"U","NORAD_CAT_ID":67010,"ELEMENT_SET_NO":999,"REV_AT_EPOCH":1486,"BSTAR":0.00033521818,"MEAN_MOTION_DOT":3.909e-5,"MEAN_MOTION_DDOT":0},{"OBJECT_NAME":"AISSAT 1","OBJECT_ID":"2010-035C","EPOCH":"2026-03-09T18:13:55.092288","MEAN_MOTION":14.96891223,"ECCENTRICITY":0.00096674,"INCLINATION":98.1015,"RA_OF_ASC_NODE":324.4785,"ARG_OF_PERICENTER":31.9143,"MEAN_ANOMALY":328.2662,"EPHEMERIS_TYPE":0,"CLASSIFICATION_TYPE":"U","NORAD_CAT_ID":36797,"ELEMENT_SET_NO":999,"REV_AT_EPOCH":84934,"BSTAR":0.00027660201,"MEAN_MOTION_DOT":3.114e-5,"MEAN_MOTION_DDOT":0}]
